<?xml version="1.0" encoding="utf-8" ?>
<kml xmlns="http://www.opengis.net/kml/2.2">
<Document id="root_doc">
<Folder><name>Tracks</name>
</Folder>
<Folder><name>Jose_Collas___4_</name>
  <Placemark>
	<name>Path</name>
	<Style><LineStyle><color>ff0000ff</color></LineStyle><PolyStyle><fill>0</fill></PolyStyle></Style>
	<ExtendedData><SchemaData schemaUrl="#Jose_Collas___4_">
		<SimpleData name="tessellate">1</SimpleData>
		<SimpleData name="extrude">0</SimpleData>
		<SimpleData name="visibility">-1</SimpleData>
	</SchemaData></ExtendedData>
      <LineString><coordinates>-71.851281,-13.375658,4226</coordinates></LineString>
  </Placemark>
</Folder>
<Folder><name>Points</name>
</Folder>
<Folder><name>Jose_Collas___47_</name>
  <Placemark>
	<name>Path</name>
	<Style><LineStyle><color>ff0000ff</color></LineStyle><PolyStyle><fill>0</fill></PolyStyle></Style>
	<ExtendedData><SchemaData schemaUrl="#Jose_Collas___47_">
		<SimpleData name="tessellate">1</SimpleData>
		<SimpleData name="extrude">0</SimpleData>
		<SimpleData name="visibility">-1</SimpleData>
	</SchemaData></ExtendedData>
      <LineString><coordinates>-71.850632,-13.421085,2991.2 -71.850715,-13.420735,2990.6 -71.851333,-13.420511,2986 -71.850917,-13.419367,2988.6 -71.851372,-13.418314,2995.8 -71.850895,-13.417965,3005.2 -71.850451,-13.418276,3015 -71.850109,-13.418059,3024.2 -71.850115,-13.417728,3034.2 -71.849736,-13.417683,3049.4 -71.850054,-13.4175,3067.8 -71.849304,-13.417318,3083 -71.84959,-13.417219,3127.2 -71.849057,-13.416878,3125.8 -71.849149,-13.416412,3137.6 -71.848582,-13.416681,3154.2 -71.8487,-13.415886,3184.4 -71.848266,-13.415772,3211 -71.847775,-13.413079,3275 -71.84756,-13.412884,3281.6 -71.847492,-13.412689,3290.2 -71.847491,-13.412691,3290.4 -71.847489,-13.412703,3290.2 -71.847486,-13.41271,3290.4 -71.847482,-13.412713,3290.4 -71.847479,-13.412716,3290.4 -71.847478,-13.412717,3290.4 -71.847477,-13.412717,3290.4 -71.847475,-13.412718,3290.4 -71.847474,-13.412719,3290.4 -71.847472,-13.412719,3290.4 -71.847471,-13.41272,3290.4 -71.847469,-13.412721,3290.6 -71.847466,-13.412721,3290.6 -71.847463,-13.412723,3290.8 -71.847461,-13.412723,3290.8 -71.84746,-13.412724,3291 -71.847456,-13.412723,3291 -71.847477,-13.412724,3290.8 -71.84748,-13.412723,3291 -71.84748,-13.412715,3291 -71.847479,-13.412707,3291 -71.847476,-13.4127,3291 -71.847472,-13.412697,3291 -71.847471,-13.412689,3291.6 -71.847486,-13.412674,3295.8 -71.847487,-13.412677,3296.2 -71.847488,-13.412679,3296.4 -71.847485,-13.41268,3297 -71.847487,-13.412681,3297.4 -71.847484,-13.412684,3298 -71.847483,-13.412691,3299 -71.847482,-13.412692,3299 -71.847482,-13.412694,3299.2 -71.847482,-13.412696,3299.4 -71.84748,-13.412699,3300 -71.847479,-13.4127,3300.4 -71.847478,-13.412701,3300.6 -71.847477,-13.412701,3301 -71.847476,-13.412701,3301.4 -71.847476,-13.412703,3301.8 -71.847477,-13.412703,3302 -71.847478,-13.412704,3302.2 -71.84748,-13.412705,3302.6 -71.847482,-13.412707,3303 -71.847484,-13.412708,3303 -71.847486,-13.412709,3303 -71.847488,-13.412711,3303 -71.847489,-13.412712,3302.8 -71.84749,-13.412713,3302.8 -71.847491,-13.412714,3303 -71.847492,-13.412714,3303 -71.84749,-13.412709,3303.8 -71.847488,-13.412709,3303.4 -71.847487,-13.412708,3303.4 -71.847487,-13.412708,3303.4 -71.847486,-13.412708,3303.4 -71.847485,-13.412708,3303.6 -71.847485,-13.412708,3303.8 -71.847485,-13.412708,3304 -71.847485,-13.412708,3304 -71.847485,-13.412709,3304.2 -71.847485,-13.412709,3304.2 -71.847485,-13.412708,3304.2 -71.847485,-13.412708,3304.2 -71.847486,-13.412708,3304 -71.847486,-13.412708,3304 -71.847488,-13.412708,3304 -71.847486,-13.412699,3303.6 -71.847485,-13.412698,3303 -71.847483,-13.4127,3302.6 -71.847482,-13.412701,3302.4 -71.847481,-13.412701,3302.2 -71.84748,-13.412702,3302.2 -71.847479,-13.412702,3302 -71.847481,-13.412703,3302.2 -71.84748,-13.412704,3302.2 -71.84748,-13.412704,3302.2 -71.84748,-13.412704,3302.2 -71.847478,-13.412704,3302 -71.847479,-13.412703,3301.8 -71.847477,-13.412708,3301.8 -71.847475,-13.412714,3301.8 -71.847474,-13.412716,3301.8 -71.847473,-13.412715,3301.8 -71.847472,-13.412716,3301.8 -71.847471,-13.412717,3302 -71.847471,-13.412718,3302 -71.847468,-13.412719,3301.8 -71.847468,-13.41272,3301.8 -71.847449,-13.412712,3300.4 -71.847447,-13.412744,3301 -71.847443,-13.411944,3311 -71.847838,-13.411764,3325.2 -71.847389,-13.411487,3333.2 -71.847908,-13.411371,3353.6 -71.847229,-13.41097,3380.4 -71.847711,-13.410882,3406.2 -71.847913,-13.411006,3413.4 -71.848044,-13.410983,3430.6 -71.848103,-13.410616,3436.8 -71.847075,-13.409662,3487 -71.847362,-13.409298,3500.6 -71.847237,-13.408326,3531.4 -71.847489,-13.408202,3540 -71.847696,-13.407342,3550.4 -71.847513,-13.406915,3561.6 -71.847695,-13.405817,3575 -71.847518,-13.404319,3603.2 -71.847918,-13.40398,3610.8 -71.847928,-13.403614,3614.6 -71.847981,-13.403566,3615.4 -71.848061,-13.40358,3615.4 -71.84807,-13.40358,3615.4 -71.84808,-13.403579,3615.4 -71.848084,-13.403536,3615.4 -71.848694,-13.404154,3624 -71.848255,-13.403247,3625.4 -71.848288,-13.402346,3645.8 -71.849262,-13.401984,3698.6 -71.849313,-13.401374,3715.6 -71.849744,-13.401085,3728.6 -71.849746,-13.401054,3729.2 -71.849733,-13.401019,3730.6 -71.849733,-13.401018,3730.6 -71.849736,-13.401018,3730.6 -71.849736,-13.401017,3730.6 -71.849738,-13.401016,3730.8 -71.849736,-13.401004,3731 -71.849574,-13.400687,3730.6 -71.849665,-13.400941,3732.2 -71.849706,-13.400994,3732.6 -71.849728,-13.40101,3733 -71.849734,-13.401016,3733.2 -71.849738,-13.40102,3733.2 -71.849745,-13.401025,3733.2 -71.849817,-13.400713,3739.2 -71.850077,-13.400531,3752.2 -71.850191,-13.400614,3756.6 -71.850213,-13.400562,3757.2 -71.850241,-13.400564,3757.6 -71.850249,-13.400534,3757.8 -71.850256,-13.400526,3758 -71.850256,-13.400527,3758.2 -71.850256,-13.400527,3758.2 -71.850256,-13.400527,3758.2 -71.850262,-13.400523,3758.2 -71.850267,-13.40052,3758.2 -71.850408,-13.400525,3760 -71.8504,-13.400513,3760.2 -71.850267,-13.400501,3759.8 -71.850258,-13.400519,3760 -71.850259,-13.400526,3760 -71.850259,-13.400545,3759.8 -71.850255,-13.400595,3759.6 -71.850551,-13.401325,3765.8 -71.851772,-13.400896,3814.2 -71.852005,-13.398716,3848.4 -71.851608,-13.397698,3858.6 -71.851764,-13.397144,3874.4 -71.851499,-13.396581,3880.4 -71.851919,-13.396297,3901.6 -71.852232,-13.396369,3911.8 -71.852487,-13.395884,3928.2 -71.853118,-13.396238,3947.6 -71.853363,-13.396879,3959 -71.853937,-13.396418,3981.6 -71.854506,-13.396511,3990.8 -71.85518,-13.396194,4030.4 -71.856648,-13.397297,4047.8 -71.857124,-13.397201,4061.4 -71.858126,-13.397664,4080.4 -71.858069,-13.399374,4098.2 -71.858368,-13.399676,4105 -71.85847,-13.39957,4108.6 -71.858615,-13.399576,4116.4 -71.858919,-13.400151,4141.2 -71.85923,-13.400498,4157.2 -71.8593,-13.400506,4160.2 -71.859334,-13.400532,4161.4 -71.859348,-13.40057,4162.4 -71.859353,-13.400578,4162.8 -71.859358,-13.40058,4163 -71.859364,-13.400582,4163.4 -71.859365,-13.400585,4163.6 -71.859365,-13.400382,4163.6 -71.859397,-13.400956,4173.8 -71.859334,-13.401171,4176.8 -71.859737,-13.401626,4169 -71.860269,-13.401248,4165.6</coordinates></LineString>
  </Placemark>
</Folder>
<Folder><name>Points___2_</name>
</Folder>
<Schema name="Jose_Collas___4_" id="Jose_Collas___4_">
	<SimpleField name="timestamp" type="string"></SimpleField>
	<SimpleField name="begin" type="string"></SimpleField>
	<SimpleField name="end" type="string"></SimpleField>
	<SimpleField name="altitudeMode" type="string"></SimpleField>
	<SimpleField name="tessellate" type="int"></SimpleField>
	<SimpleField name="extrude" type="int"></SimpleField>
	<SimpleField name="visibility" type="int"></SimpleField>
	<SimpleField name="drawOrder" type="int"></SimpleField>
	<SimpleField name="icon" type="string"></SimpleField>
</Schema>
<Schema name="Jose_Collas___47_" id="Jose_Collas___47_">
	<SimpleField name="timestamp" type="string"></SimpleField>
	<SimpleField name="begin" type="string"></SimpleField>
	<SimpleField name="end" type="string"></SimpleField>
	<SimpleField name="altitudeMode" type="string"></SimpleField>
	<SimpleField name="tessellate" type="int"></SimpleField>
	<SimpleField name="extrude" type="int"></SimpleField>
	<SimpleField name="visibility" type="int"></SimpleField>
	<SimpleField name="drawOrder" type="int"></SimpleField>
	<SimpleField name="icon" type="string"></SimpleField>
</Schema>
</Document></kml>
